{
  "type": "FeatureCollection",
  "features": [
    {
      "type": "Feature",
      "properties": {
        "norad_id": 39617,
        "name": "ASTRA 5B (EGNOS/PRN 123)",
        "group": "gnss",
        "lat": -0.0720898656615027,
        "lon": -86.93405427460834,
        "alt_km": 35767.455456510615,
        "timestamp": "2025-12-17T10:52:54.595529+00:00",
        "meta_object_name": "ASTRA 5B (EGNOS/PRN 123)",
        "meta_object_id": "2014-011B",
        "meta_epoch": "2025-12-16T18:36:15.918336",
        "meta_mean_motion": 1.00274629,
        "meta_eccentricity": 0.00042003,
        "meta_inclination": 0.0684,
        "meta_ra_of_asc_node": 44.7595,
        "meta_arg_of_pericenter": 224.5568,
        "meta_mean_anomaly": 118.9213,
        "meta_ephemeris_type": 0,
        "meta_classification_type": "U",
        "meta_norad_cat_id": 39617,
        "meta_element_set_no": 999,
        "meta_rev_at_epoch": 4283,
        "meta_bstar": 0,
        "meta_mean_motion_dot": 1.61e-06,
        "meta_mean_motion_ddot": 0,
        "tle_line1": "1 39617U 14011B   25350.77518424  .00000161  00000+0  00000+0 0  9992",
        "tle_line2": "2 39617   0.0684  44.7595 0004200 224.5568 118.9213  1.00274629 42831"
      },
      "geometry": {
        "type": "Point",
        "coordinates": [
          -86.93405427460834,
          -0.0720898656615027
        ]
      }
    },
    {
      "type": "Feature",
      "properties": {
        "norad_id": 39620,
        "name": "COSMOS 2492 (754)",
        "group": "gnss",
        "lat": 32.21248535782587,
        "lon": 123.32802852424373,
        "alt_km": 19161.854955754963,
        "timestamp": "2025-12-17T10:52:54.595542+00:00",
        "meta_object_name": "COSMOS 2492 (754)",
        "meta_object_id": "2014-012A",
        "meta_epoch": "2025-12-16T07:50:46.447872",
        "meta_mean_motion": 2.13103282,
        "meta_eccentricity": 0.00142536,
        "meta_inclination": 65.4058,
        "meta_ra_of_asc_node": 320.149,
        "meta_arg_of_pericenter": 313.159,
        "meta_mean_anomaly": 46.7158,
        "meta_ephemeris_type": 0,
        "meta_classification_type": "U",
        "meta_norad_cat_id": 39620,
        "meta_element_set_no": 999,
        "meta_rev_at_epoch": 9134,
        "meta_bstar": 0,
        "meta_mean_motion_dot": -6.8e-07,
        "meta_mean_motion_ddot": 0,
        "tle_line1": "1 39620U 14012A   25350.32692648 -.00000068  00000+0  00000+0 0  9996",
        "tle_line2": "2 39620  65.4058 320.1490 0014253 313.1590  46.7158  2.13103282 91346"
      },
      "geometry": {
        "type": "Point",
        "coordinates": [
          123.32802852424373,
          32.21248535782587
        ]
      }
    },
    {
      "type": "Feature",
      "properties": {
        "norad_id": 39635,
        "name": "IRNSS-1B",
        "group": "gnss",
        "lat": 25.415513197745867,
        "lon": -58.482914934117076,
        "alt_km": 35862.07528659828,
        "timestamp": "2025-12-17T10:52:54.595554+00:00",
        "meta_object_name": "IRNSS-1B",
        "meta_object_id": "2014-017A",
        "meta_epoch": "2025-12-16T18:45:22.546080",
        "meta_mean_motion": 1.00269874,
        "meta_eccentricity": 0.00189725,
        "meta_inclination": 29.2588,
        "meta_ra_of_asc_node": 243.5372,
        "meta_arg_of_pericenter": 251.6767,
        "meta_mean_anomaly": 287.2039,
        "meta_ephemeris_type": 0,
        "meta_classification_type": "U",
        "meta_norad_cat_id": 39635,
        "meta_element_set_no": 999,
        "meta_rev_at_epoch": 4296,
        "meta_bstar": 0,
        "meta_mean_motion_dot": 1.41e-06,
        "meta_mean_motion_ddot": 0,
        "tle_line1": "1 39635U 14017A   25350.78151095  .00000141  00000+0  00000+0 0  9994",
        "tle_line2": "2 39635  29.2588 243.5372 0018972 251.6767 287.2039  1.00269874 42968"
      },
      "geometry": {
        "type": "Point",
        "coordinates": [
          -58.482914934117076,
          25.415513197745867
        ]
      }
    },
    {
      "type": "Feature",
      "properties": {
        "norad_id": 39727,
        "name": "LUCH 5V (SDCM/PRN 141)",
        "group": "gnss",
        "lat": -4.678568558264055,
        "lon": -15.70131306284204,
        "alt_km": 35779.32763929907,
        "timestamp": "2025-12-17T10:52:54.595566+00:00",
        "meta_object_name": "LUCH 5V (SDCM/PRN 141)",
        "meta_object_id": "2014-023A",
        "meta_epoch": "2025-12-16T21:48:06.211008",
        "meta_mean_motion": 1.00268114,
        "meta_eccentricity": 0.00043391,
        "meta_inclination": 4.6796,
        "meta_ra_of_asc_node": 71.5004,
        "meta_arg_of_pericenter": 210.3593,
        "meta_mean_anomaly": 225.6583,
        "meta_ephemeris_type": 0,
        "meta_classification_type": "U",
        "meta_norad_cat_id": 39727,
        "meta_element_set_no": 999,
        "meta_rev_at_epoch": 4253,
        "meta_bstar": 0,
        "meta_mean_motion_dot": -2.47e-06,
        "meta_mean_motion_ddot": 0,
        "tle_line1": "1 39727U 14023A   25350.90840522 -.00000247  00000+0  00000+0 0  9995",
        "tle_line2": "2 39727   4.6796  71.5004 0004339 210.3593 225.6583  1.00268114 42539"
      },
      "geometry": {
        "type": "Point",
        "coordinates": [
          -15.70131306284204,
          -4.678568558264055
        ]
      }
    },
    {
      "type": "Feature",
      "properties": {
        "norad_id": 39741,
        "name": "GPS BIIF-6  (PRN 06)",
        "group": "gnss",
        "lat": -15.887902214231449,
        "lon": -32.24721646007852,
        "alt_km": 20088.02760920452,
        "timestamp": "2025-12-17T10:52:54.595577+00:00",
        "meta_object_name": "GPS BIIF-6  (PRN 06)",
        "meta_object_id": "2014-026A",
        "meta_epoch": "2025-12-15T23:36:56.796480",
        "meta_mean_motion": 2.00561228,
        "meta_eccentricity": 0.00392671,
        "meta_inclination": 56.5823,
        "meta_ra_of_asc_node": 338.6501,
        "meta_arg_of_pericenter": 318.8752,
        "meta_mean_anomaly": 40.8399,
        "meta_ephemeris_type": 0,
        "meta_classification_type": "U",
        "meta_norad_cat_id": 39741,
        "meta_element_set_no": 999,
        "meta_rev_at_epoch": 8486,
        "meta_bstar": 0,
        "meta_mean_motion_dot": -8.7e-07,
        "meta_mean_motion_ddot": 0,
        "tle_line1": "1 39741U 14026A   25349.98399070 -.00000087  00000+0  00000+0 0  9999",
        "tle_line2": "2 39741  56.5823 338.6501 0039267 318.8752  40.8399  2.00561228 84867"
      },
      "geometry": {
        "type": "Point",
        "coordinates": [
          -32.24721646007852,
          -15.887902214231449
        ]
      }
    },
    {
      "type": "Feature",
      "properties": {
        "norad_id": 40001,
        "name": "COSMOS 2500 (755)",
        "group": "gnss",
        "lat": 11.004075734024923,
        "lon": -35.01875406073606,
        "alt_km": 19147.063768997457,
        "timestamp": "2025-12-17T10:52:54.595589+00:00",
        "meta_object_name": "COSMOS 2500 (755)",
        "meta_object_id": "2014-032A",
        "meta_epoch": "2025-12-16T00:42:57.084768",
        "meta_mean_motion": 2.13105999,
        "meta_eccentricity": 0.00081036,
        "meta_inclination": 65.3412,
        "meta_ra_of_asc_node": 319.9203,
        "meta_arg_of_pericenter": 219.1149,
        "meta_mean_anomaly": 140.8212,
        "meta_ephemeris_type": 0,
        "meta_classification_type": "U",
        "meta_norad_cat_id": 40001,
        "meta_element_set_no": 999,
        "meta_rev_at_epoch": 8955,
        "meta_bstar": 0,
        "meta_mean_motion_dot": -6.8e-07,
        "meta_mean_motion_ddot": 0,
        "tle_line1": "1 40001U 14032A   25350.02982737 -.00000068  00000+0  00000+0 0  9991",
        "tle_line2": "2 40001  65.3412 319.9203 0008103 219.1149 140.8212  2.13105999 89558"
      },
      "geometry": {
        "type": "Point",
        "coordinates": [
          -35.01875406073606,
          11.004075734024923
        ]
      }
    },
    {
      "type": "Feature",
      "properties": {
        "norad_id": 40105,
        "name": "GPS BIIF-7  (PRN 09)",
        "group": "gnss",
        "lat": -54.35506420152605,
        "lon": 20.36805443355645,
        "alt_km": 20267.755885667008,
        "timestamp": "2025-12-17T10:52:54.595602+00:00",
        "meta_object_name": "GPS BIIF-7  (PRN 09)",
        "meta_object_id": "2014-045A",
        "meta_epoch": "2025-12-15T01:46:50.034144",
        "meta_mean_motion": 2.00572752,
        "meta_eccentricity": 0.00326343,
        "meta_inclination": 55.2306,
        "meta_ra_of_asc_node": 95.8057,
        "meta_arg_of_pericenter": 119.9544,
        "meta_mean_anomaly": 240.3532,
        "meta_ephemeris_type": 0,
        "meta_classification_type": "U",
        "meta_norad_cat_id": 40105,
        "meta_element_set_no": 999,
        "meta_rev_at_epoch": 8238,
        "meta_bstar": 0,
        "meta_mean_motion_dot": -3.6e-07,
        "meta_mean_motion_ddot": 0,
        "tle_line1": "1 40105U 14045A   25349.07419021 -.00000036  00000+0  00000+0 0  9999",
        "tle_line2": "2 40105  55.2306  95.8057 0032634 119.9544 240.3532  2.00572752 82388"
      },
      "geometry": {
        "type": "Point",
        "coordinates": [
          20.36805443355645,
          -54.35506420152605
        ]
      }
    }
  ]
}